CCSDS_OMM_VERS = 2.0
CREATION_DATE  = 
ORIGINATOR     = 

OBJECT_NAME    = KUIPER-00200
OBJECT_ID      = 2026-030J
CENTER_NAME    = EARTH
REF_FRAME      = TEME
TIME_SYSTEM    = UTC
MEAN_ELEMENT_THEORY = SGP/SGP4

EPOCH          = 2026-03-08T01:13:30.090144
MEAN_MOTION    = 15.37025861
ECCENTRICITY   = .0000833
INCLINATION    = 51.8812
RA_OF_ASC_NODE = 226.8428
ARG_OF_PERICENTER = 276.7453
MEAN_ANOMALY   = 83.3439

EPHEMERIS_TYPE = 0
CLASSIFICATION_TYPE = U
NORAD_CAT_ID   = 67772
ELEMENT_SET_NO = 999
REV_AT_EPOCH   = 484
BSTAR          = .24987E-2
MEAN_MOTION_DOT = .92671E-3
MEAN_MOTION_DDOT = 0

CCSDS_OMM_VERS = 2.0
CREATION_DATE  = 
ORIGINATOR     = 

OBJECT_NAME    = KUIPER-00203
OBJECT_ID      = 2026-030K
CENTER_NAME    = EARTH
REF_FRAME      = TEME
TIME_SYSTEM    = UTC
MEAN_ELEMENT_THEORY = SGP/SGP4

EPOCH          = 2026-03-08T04:00:01.999584
MEAN_MOTION    = 15.16572554
ECCENTRICITY   = .0011692
INCLINATION    = 51.8854
RA_OF_ASC_NODE = 227.2376
ARG_OF_PERICENTER = 55.5600
MEAN_ANOMALY   = 81.0070

EPHEMERIS_TYPE = 0
CLASSIFICATION_TYPE = U
NORAD_CAT_ID   = 67773
ELEMENT_SET_NO = 999
REV_AT_EPOCH   = 342
BSTAR          = -.6385E-1
MEAN_MOTION_DOT = -.1165718E-1
MEAN_MOTION_DDOT = 0

CCSDS_OMM_VERS = 2.0
CREATION_DATE  = 
ORIGINATOR     = 

OBJECT_NAME    = KUIPER-00205
OBJECT_ID      = 2026-030L
CENTER_NAME    = EARTH
REF_FRAME      = TEME
TIME_SYSTEM    = UTC
MEAN_ELEMENT_THEORY = SGP/SGP4

EPOCH          = 2026-03-08T01:28:12.864000
MEAN_MOTION    = 15.36344568
ECCENTRICITY   = .0003063
INCLINATION    = 51.8804
RA_OF_ASC_NODE = 226.9067
ARG_OF_PERICENTER = 16.0405
MEAN_ANOMALY   = 344.0678

EPHEMERIS_TYPE = 0
CLASSIFICATION_TYPE = U
NORAD_CAT_ID   = 67774
ELEMENT_SET_NO = 999
REV_AT_EPOCH   = 484
BSTAR          = .95934E-3
MEAN_MOTION_DOT = .343E-3
MEAN_MOTION_DDOT = 0

CCSDS_OMM_VERS = 2.0
CREATION_DATE  = 
ORIGINATOR     = 

OBJECT_NAME    = KUIPER-00208
OBJECT_ID      = 2026-030M
CENTER_NAME    = EARTH
REF_FRAME      = TEME
TIME_SYSTEM    = UTC
MEAN_ELEMENT_THEORY = SGP/SGP4

EPOCH          = 2026-03-07T21:52:17.118336
MEAN_MOTION    = 15.32278708
ECCENTRICITY   = .00149914
INCLINATION    = 51.8846
RA_OF_ASC_NODE = 228.1462
ARG_OF_PERICENTER = 53.9055
MEAN_ANOMALY   = 306.3316

EPHEMERIS_TYPE = 0
CLASSIFICATION_TYPE = U
NORAD_CAT_ID   = 67775
ELEMENT_SET_NO = 999
REV_AT_EPOCH   = 481
BSTAR          = .17884258E-2
MEAN_MOTION_DOT = .56809E-3
MEAN_MOTION_DDOT = 0

CCSDS_OMM_VERS = 2.0
CREATION_DATE  = 
ORIGINATOR     = 

OBJECT_NAME    = KUIPER-00209
OBJECT_ID      = 2026-030N
CENTER_NAME    = EARTH
REF_FRAME      = TEME
TIME_SYSTEM    = UTC
MEAN_ELEMENT_THEORY = SGP/SGP4

EPOCH          = 2026-03-08T01:12:38.680416
MEAN_MOTION    = 15.30288004
ECCENTRICITY   = .0012756
INCLINATION    = 51.8831
RA_OF_ASC_NODE = 227.5722
ARG_OF_PERICENTER = 62.9556
MEAN_ANOMALY   = 297.2728

EPHEMERIS_TYPE = 0
CLASSIFICATION_TYPE = U
NORAD_CAT_ID   = 67776
ELEMENT_SET_NO = 999
REV_AT_EPOCH   = 483
BSTAR          = .82148E-3
MEAN_MOTION_DOT = .24189E-3
MEAN_MOTION_DDOT = 0

CCSDS_OMM_VERS = 2.0
CREATION_DATE  = 
ORIGINATOR     = 

OBJECT_NAME    = KUIPER-00213
OBJECT_ID      = 2026-030P
CENTER_NAME    = EARTH
REF_FRAME      = TEME
TIME_SYSTEM    = UTC
MEAN_ELEMENT_THEORY = SGP/SGP4

EPOCH          = 2026-03-07T23:26:25.919232
MEAN_MOTION    = 15.32701069
ECCENTRICITY   = .00149888
INCLINATION    = 51.8817
RA_OF_ASC_NODE = 227.8246
ARG_OF_PERICENTER = 59.8945
MEAN_ANOMALY   = 300.3524

EPHEMERIS_TYPE = 0
CLASSIFICATION_TYPE = U
NORAD_CAT_ID   = 67777
ELEMENT_SET_NO = 999
REV_AT_EPOCH   = 482
BSTAR          = .12333293E-2
MEAN_MOTION_DOT = .39494E-3
MEAN_MOTION_DDOT = 0

CCSDS_OMM_VERS = 2.0
CREATION_DATE  = 
ORIGINATOR     = 

OBJECT_NAME    = KUIPER-00214
OBJECT_ID      = 2026-030Q
CENTER_NAME    = EARTH
REF_FRAME      = TEME
TIME_SYSTEM    = UTC
MEAN_ELEMENT_THEORY = SGP/SGP4

EPOCH          = 2026-03-08T01:18:08.486496
MEAN_MOTION    = 15.36694124
ECCENTRICITY   = .0000703
INCLINATION    = 51.8844
RA_OF_ASC_NODE = 226.8702
ARG_OF_PERICENTER = 350.4418
MEAN_ANOMALY   = 9.6555

EPHEMERIS_TYPE = 0
CLASSIFICATION_TYPE = U
NORAD_CAT_ID   = 67778
ELEMENT_SET_NO = 999
REV_AT_EPOCH   = 484
BSTAR          = .17283E-2
MEAN_MOTION_DOT = .63045E-3
MEAN_MOTION_DDOT = 0

CCSDS_OMM_VERS = 2.0
CREATION_DATE  = 
ORIGINATOR     = 

OBJECT_NAME    = KUIPER-00215
OBJECT_ID      = 2026-030R
CENTER_NAME    = EARTH
REF_FRAME      = TEME
TIME_SYSTEM    = UTC
MEAN_ELEMENT_THEORY = SGP/SGP4

EPOCH          = 2026-03-08T00:34:13.897344
MEAN_MOTION    = 15.34404839
ECCENTRICITY   = .0012279
INCLINATION    = 51.8849
RA_OF_ASC_NODE = 227.4066
ARG_OF_PERICENTER = 53.5226
MEAN_ANOMALY   = 306.6889

EPHEMERIS_TYPE = 0
CLASSIFICATION_TYPE = U
NORAD_CAT_ID   = 67779
ELEMENT_SET_NO = 999
REV_AT_EPOCH   = 483
BSTAR          = .12734E-2
MEAN_MOTION_DOT = .43034E-3
MEAN_MOTION_DDOT = 0

CCSDS_OMM_VERS = 2.0
CREATION_DATE  = 
ORIGINATOR     = 

OBJECT_NAME    = KUIPER-00218
OBJECT_ID      = 2026-030S
CENTER_NAME    = EARTH
REF_FRAME      = TEME
TIME_SYSTEM    = UTC
MEAN_ELEMENT_THEORY = SGP/SGP4

EPOCH          = 2026-03-08T03:26:10.160160
MEAN_MOTION    = 15.35134780
ECCENTRICITY   = .0006849
INCLINATION    = 51.8834
RA_OF_ASC_NODE = 226.7079
ARG_OF_PERICENTER = 46.3566
MEAN_ANOMALY   = 313.7987

EPHEMERIS_TYPE = 0
CLASSIFICATION_TYPE = U
NORAD_CAT_ID   = 67780
ELEMENT_SET_NO = 999
REV_AT_EPOCH   = 485
BSTAR          = .18476E-2
MEAN_MOTION_DOT = .64168E-3
MEAN_MOTION_DDOT = 0

CCSDS_OMM_VERS = 2.0
CREATION_DATE  = 
ORIGINATOR     = 

OBJECT_NAME    = KUIPER-00220
OBJECT_ID      = 2026-030T
CENTER_NAME    = EARTH
REF_FRAME      = TEME
TIME_SYSTEM    = UTC
MEAN_ELEMENT_THEORY = SGP/SGP4

EPOCH          = 2026-03-07T22:54:43.647840
MEAN_MOTION    = 15.34718494
ECCENTRICITY   = .0008547
INCLINATION    = 51.8818
RA_OF_ASC_NODE = 227.6857
ARG_OF_PERICENTER = 50.1937
MEAN_ANOMALY   = 309.9800

EPHEMERIS_TYPE = 0
CLASSIFICATION_TYPE = U
NORAD_CAT_ID   = 67781
ELEMENT_SET_NO = 999
REV_AT_EPOCH   = 482
BSTAR          = .14005E-2
MEAN_MOTION_DOT = .47818E-3
MEAN_MOTION_DDOT = 0

CCSDS_OMM_VERS = 2.0
CREATION_DATE  = 
ORIGINATOR     = 

OBJECT_NAME    = KUIPER-00222
OBJECT_ID      = 2026-030U
CENTER_NAME    = EARTH
REF_FRAME      = TEME
TIME_SYSTEM    = UTC
MEAN_ELEMENT_THEORY = SGP/SGP4

EPOCH          = 2026-03-08T01:06:06.865920
MEAN_MOTION    = 15.32397029
ECCENTRICITY   = .0017335
INCLINATION    = 51.8817
RA_OF_ASC_NODE = 227.5353
ARG_OF_PERICENTER = 59.8512
MEAN_ANOMALY   = 300.4188

EPHEMERIS_TYPE = 0
CLASSIFICATION_TYPE = U
NORAD_CAT_ID   = 67782
ELEMENT_SET_NO = 999
REV_AT_EPOCH   = 483
BSTAR          = .87968E-3
MEAN_MOTION_DOT = .2778E-3
MEAN_MOTION_DDOT = 0

CCSDS_OMM_VERS = 2.0
CREATION_DATE  = 
ORIGINATOR     = 

OBJECT_NAME    = KUIPER-00223
OBJECT_ID      = 2026-030V
CENTER_NAME    = EARTH
REF_FRAME      = TEME
TIME_SYSTEM    = UTC
MEAN_ELEMENT_THEORY = SGP/SGP4

EPOCH          = 2026-03-08T00:39:48.132288
MEAN_MOTION    = 15.34077115
ECCENTRICITY   = .001283
INCLINATION    = 51.8840
RA_OF_ASC_NODE = 227.4268
ARG_OF_PERICENTER = 54.5710
MEAN_ANOMALY   = 305.6471

EPHEMERIS_TYPE = 0
CLASSIFICATION_TYPE = U
NORAD_CAT_ID   = 67783
ELEMENT_SET_NO = 999
REV_AT_EPOCH   = 483
BSTAR          = .16493E-2
MEAN_MOTION_DOT = .55372E-3
MEAN_MOTION_DDOT = 0

CCSDS_OMM_VERS = 2.0
CREATION_DATE  = 
ORIGINATOR     = 

OBJECT_NAME    = KUIPER-00225
OBJECT_ID      = 2026-030W
CENTER_NAME    = EARTH
REF_FRAME      = TEME
TIME_SYSTEM    = UTC
MEAN_ELEMENT_THEORY = SGP/SGP4

EPOCH          = 2026-03-08T01:37:43.895424
MEAN_MOTION    = 15.35850528
ECCENTRICITY   = .0005427
INCLINATION    = 51.8803
RA_OF_ASC_NODE = 226.9499
ARG_OF_PERICENTER = 33.6198
MEAN_ANOMALY   = 326.5131

EPHEMERIS_TYPE = 0
CLASSIFICATION_TYPE = U
NORAD_CAT_ID   = 67784
ELEMENT_SET_NO = 999
REV_AT_EPOCH   = 484
BSTAR          = .19269E-2
MEAN_MOTION_DOT = .68518E-3
MEAN_MOTION_DDOT = 0

CCSDS_OMM_VERS = 2.0
CREATION_DATE  = 
ORIGINATOR     = 

OBJECT_NAME    = KUIPER-00226
OBJECT_ID      = 2026-030X
CENTER_NAME    = EARTH
REF_FRAME      = TEME
TIME_SYSTEM    = UTC
MEAN_ELEMENT_THEORY = SGP/SGP4

EPOCH          = 2026-03-08T01:25:29.816832
MEAN_MOTION    = 15.31072522
ECCENTRICITY   = .0019721
INCLINATION    = 51.8808
RA_OF_ASC_NODE = 227.6235
ARG_OF_PERICENTER = 68.0878
MEAN_ANOMALY   = 292.2200

EPHEMERIS_TYPE = 0
CLASSIFICATION_TYPE = U
NORAD_CAT_ID   = 67785
ELEMENT_SET_NO = 999
REV_AT_EPOCH   = 483
BSTAR          = .1147E-3
MEAN_MOTION_DOT = .3139E-4
MEAN_MOTION_DDOT = 0

CCSDS_OMM_VERS = 2.0
CREATION_DATE  = 
ORIGINATOR     = 

OBJECT_NAME    = KUIPER-00259
OBJECT_ID      = 2026-030Y
CENTER_NAME    = EARTH
REF_FRAME      = TEME
TIME_SYSTEM    = UTC
MEAN_ELEMENT_THEORY = SGP/SGP4

EPOCH          = 2026-03-08T01:55:36.725952
MEAN_MOTION    = 15.35048258
ECCENTRICITY   = .0008538
INCLINATION    = 51.8814
RA_OF_ASC_NODE = 227.0284
ARG_OF_PERICENTER = 45.7104
MEAN_ANOMALY   = 314.4581

EPHEMERIS_TYPE = 0
CLASSIFICATION_TYPE = U
NORAD_CAT_ID   = 67786
ELEMENT_SET_NO = 999
REV_AT_EPOCH   = 484
BSTAR          = .17978E-2
MEAN_MOTION_DOT = .62264E-3
MEAN_MOTION_DDOT = 0

